H1 CPF 01  gfz 2022 01 30 01  5301 tandemx   
H2 1003001  6202 36605    2022 01 30 00 59 42 2022 02 04 00 00 42   120 1 1  0 0 0
H9
10 0 59610  66222.000000  0    2684671.404  -1082094.983   6240599.224
10 0 59610  66342.000000  0    1817849.070  -1054946.142   6549560.943
10 0 59610  66462.000000  0     920079.706   -993947.584   6743422.525
10 0 59610  66582.000000  0       7618.744   -899767.446   6818800.803
10 0 59610  66702.000000  0    -903048.320   -773936.945   6774381.169
10 0 59610  66822.000000  0   -1795502.324   -618825.723   6610938.360
10 0 59610  66942.000000  0   -2653684.798   -437597.529   6331323.620
10 0 59610  67062.000000  0   -3462186.062   -234147.388   5940419.169
10 0 59610  67182.000000  0   -4206524.163    -13021.093   5445059.227
10 0 59610  67302.000000  0   -4873409.482    220681.662   4853916.822
10 0 59610  67422.000000  0   -5450989.222    461418.406   4177357.373
10 0 59610  67542.000000  0   -5929066.866    703327.902   3427260.614
10 0 59610  67662.000000  0   -6299291.369    940364.218   2616814.409
10 0 59610  67782.000000  0   -6555313.076   1166437.998   1760282.266
10 0 59610  67902.000000  0   -6692901.375   1375561.035    872748.743
10 0 59610  68022.000000  0   -6710021.130   1561991.196    -30153.233
10 0 59610  68142.000000  0   -6606863.692   1720373.658   -932526.904
10 0 59610  68262.000000  0   -6385832.523   1845874.072  -1818500.296
10 0 59610  68382.000000  0   -6051485.592   1934301.523  -2672513.046
10 0 59610  68502.000000  0   -5610434.379   1982218.092  -3479597.014
10 0 59610  68622.000000  0   -5071201.912   1987030.892  -4225642.232
10 0 59610  68742.000000  0   -4444045.856   1947065.261  -4897642.258
10 0 59610  68862.000000  0   -3740751.790   1861617.985  -5483915.467
10 0 59610  68982.000000  0   -2974402.910   1730989.928  -5974298.993
10 0 59610  69102.000000  0   -2159131.391   1556497.488  -6360314.906
10 0 59610  69222.000000  0   -1309854.177   1340462.972  -6635305.833
10 0 59610  69342.000000  0    -442000.910   1086184.086  -6794537.533
10 0 59610  69462.000000  0     428761.271    797883.719  -6835270.854
10 0 59610  69582.000000  0    1286802.698    480641.371  -6756804.839
10 0 59610  69702.000000  0    2116806.517    140305.375  -6560488.965
10 0 59610  69822.000000  0    2904036.008   -216612.009  -6249701.664
10 0 59610  69942.000000  0    3634592.604   -583054.985  -5829798.657
10 0 59610  70062.000000  0    4295658.938   -951558.976  -5308028.814
10 0 59610  70182.000000  0    4875725.629  -1314397.679  -4693421.410
10 0 59610  70302.000000  0    5364798.209  -1663740.984  -3996641.167
10 0 59610  70422.000000  0    5754578.229  -1991819.421  -3229812.909
10 0 59610  70542.000000  0    6038615.095  -2291092.521  -2406317.662
10 0 59610  70662.000000  0    6212424.106  -2554417.386  -1540562.500
10 0 59610  70782.000000  0    6273567.138  -2775212.884   -647728.526
10 0 59610  70902.000000  0    6221694.116  -2947615.714    256498.678
10 0 59610  71022.000000  0    6058542.956  -3066624.066   1156210.836
10 0 59610  71142.000000  0    5787898.131  -3128225.062   2035565.942
10 0 59610  71262.000000  0    5415505.424  -3129502.106   2879076.745
10 0 59610  71382.000000  0    4948948.350  -3068719.642   3671891.355
10 0 59610  71502.000000  0    4397488.285  -2945381.893   4400060.158
10 0 59610  71622.000000  0    3771875.212  -2760266.959   5050784.015
10 0 59610  71742.000000  0    3084129.805  -2515434.544   5612640.795
10 0 59610  71862.000000  0    2347304.403  -2214205.715   6075782.535
10 0 59610  71982.000000  0    1575229.645  -1861117.483   6432103.055
10 0 59610  72102.000000  0     782250.795  -1461852.997   6675373.966
10 0 59610  72222.000000  0     -17041.253  -1023148.255   6801347.356
10 0 59610  72342.000000  0    -808078.554   -552677.080   6807824.681
10 0 59610  72462.000000  0   -1576580.336    -58916.854   6694692.130
10 0 59610  72582.000000  0   -2308809.585    449003.805   6463922.573
10 0 59610  72702.000000  0   -2991817.966    961473.000   6119543.712
10 0 59610  72822.000000  0   -3613675.785   1468576.269   5667572.685
10 0 59610  72942.000000  0   -4163683.892   1960287.527   5115917.595
10 0 59610  73062.000000  0   -4632563.994   2426667.490   4474245.726
10 0 59610  73182.000000  0   -5012622.243   2858065.582   3753818.212
10 0 59610  73302.000000  0   -5297882.105   3245320.360   2967295.107
10 0 59610  73422.000000  0   -5484184.960   3579954.662   2128513.966
10 0 59610  73542.000000  0   -5569255.804   3854361.888   1252244.360
10 0 59610  73662.000000  0   -5552730.844   4061976.827    353921.240
10 0 59610  73782.000000  0   -5436145.407   4197426.639   -550634.479
10 0 59610  73902.000000  0   -5222884.561   4256659.082  -1445503.083
10 0 59610  74022.000000  0   -4918095.977   4237044.560  -2314956.147
10 0 59610  74142.000000  0   -4528566.042   4137447.357  -3143741.324
10 0 59610  74262.000000  0   -4062564.874   3958266.011  -3917354.323
10 0 59610  74382.000000  0   -3529664.559   3701442.344  -4622292.868
10 0 59610  74502.000000  0   -2940535.988   3370440.051  -5246288.133
10 0 59610  74622.000000  0   -2306731.191   2970194.022  -5778510.114
10 0 59610  74742.000000  0   -1640454.070   2507032.430  -6209747.109
10 0 59610  74862.000000  0    -954323.614   1988571.484  -6532554.142
10 0 59610  74982.000000  0    -261136.690   1423587.607  -6741369.448
10 0 59610  75102.000000  0     426366.426    821868.613  -6832600.255
10 0 59610  75222.000000  0    1095730.057    194046.927  -6804678.712
10 0 59610  75342.000000  0    1735004.708   -448584.806  -6658086.451
10 0 59610  75462.000000  0    2332955.042  -1094272.038  -6395345.722
10 0 59610  75582.000000  0    2879253.578  -1731007.774  -6020981.104
10 0 59610  75702.000000  0    3364657.398  -2346750.186  -5541449.729
10 0 59610  75822.000000  0    3781166.743  -2929647.685  -4965042.380
10 0 59610  75942.000000  0    4122161.223  -3468267.582  -4301749.907
10 0 59610  76062.000000  0    4382508.979  -3951820.728  -3563099.683
10 0 59610  76182.000000  0    4558650.105  -4370380.215  -2761964.921
10 0 59610  76302.000000  0    4648651.059  -4715089.371  -1912345.852
10 0 59610  76422.000000  0    4652227.500  -4978353.792  -1029126.950
10 0 59610  76542.000000  0    4570733.385  -5154012.109   -127813.361
10 0 59610  76662.000000  0    4407116.576  -5237479.452    775747.029
10 0 59610  76782.000000  0    4165842.598  -5225861.037   1665650.222
10 0 59610  76902.000000  0    3852786.278  -5118030.881   2526225.731
10 0 59610  77022.000000  0    3475095.305  -4914675.282   3342320.058
10 0 59610  77142.000000  0    3041029.628  -4618299.678   4099570.638
10 0 59610  77262.000000  0    2559780.374  -4233197.895   4784662.826
10 0 59610  77382.000000  0    2041273.555  -3765385.704   5385565.455
10 0 59610  77502.000000  0    1495963.013  -3222500.935   5891740.852
10 0 59610  77622.000000  0     934616.928  -2613671.477   6294325.752
10 0 59610  77742.000000  0     368103.514  -1949356.280   6586280.054
10 0 59610  77862.000000  0    -192819.843  -1241162.045   6762502.999
10 0 59610  77982.000000  0    -737709.682   -501638.563   6819917.626
10 0 59610  78102.000000  0   -1256629.758    255944.792   6757521.072
10 0 59610  78222.000000  0   -1740331.613   1017836.718   6576400.800
10 0 59610  78342.000000  0   -2180418.997   1770052.672   6279716.733
10 0 59610  78462.000000  0   -2569494.271   2498630.650   5872649.648
10 0 59610  78582.000000  0   -2901283.975   3189890.868   5362316.481
10 0 59610  78702.000000  0   -3170742.717   3830694.769   4757652.635
10 0 59610  78822.000000  0   -3374132.992   4408699.153   4069261.512
10 0 59610  78942.000000  0   -3509078.538   4912600.182   3309232.786
10 0 59610  79062.000000  0   -3574589.956   5332361.781   2490931.389
10 0 59610  79182.000000  0   -3571061.729   5659422.021   1628760.455
10 0 59610  79302.000000  0   -3500240.427   5886872.072    737903.981
10 0 59610  79422.000000  0   -3365165.774   6009606.173   -165946.194
10 0 59610  79542.000000  0   -3170084.519   6024436.030  -1066876.317
10 0 59610  79662.000000  0   -2920339.763   5930165.428  -1949041.504
10 0 59610  79782.000000  0   -2622236.332   5727622.484  -2796954.318
10 0 59610  79902.000000  0   -2282888.353   5419651.037  -3595760.461
10 0 59610  80022.000000  0   -1910054.853   5011063.921  -4331501.069
10 0 59610  80142.000000  0   -1511965.410   4508556.324  -4991354.367
10 0 59610  80262.000000  0   -1097142.053   3920585.974  -5563852.364
10 0 59610  80382.000000  0    -674219.907   3257222.323  -6039072.594
10 0 59610  80502.000000  0    -251770.082   2529966.101  -6408800.593
10 0 59610  80622.000000  0     161870.497   1751544.990  -6666659.625
10 0 59610  80742.000000  0     558758.721    935690.771  -6808210.430
10 0 59610  80862.000000  0     931493.807     96899.521  -6831019.960
10 0 59610  80982.000000  0    1273351.811   -749821.550  -6734698.357
10 0 59610  81102.000000  0    1578403.422  -1589216.563  -6520903.293
10 0 59610  81222.000000  0    1841614.452  -2406048.163  -6193314.421
10 0 59610  81342.000000  0    2058928.538  -3185367.758  -5757577.863
10 0 59610  81462.000000  0    2227330.092  -3912787.307  -5221220.302
10 0 59610  81582.000000  0    2344886.490  -4574746.663  -4593528.551
10 0 59610  81702.000000  0    2410768.081  -5158768.369  -3885398.893
10 0 59610  81822.000000  0    2425245.945  -5653699.196  -3109158.419
10 0 59610  81942.000000  0    2389667.118  -6049932.681  -2278357.601
10 0 59610  82062.000000  0    2306407.483  -6339606.805  -1407537.588
10 0 59610  82182.000000  0    2178802.028  -6516771.357   -511975.004
10 0 59610  82302.000000  0    2011055.516  -6577517.717    392591.961
10 0 59610  82422.000000  0    1808133.007  -6520068.690   1290246.206
10 0 59610  82542.000000  0    1575636.248  -6344828.101   2165180.960
10 0 59610  82662.000000  0    1319665.356  -6054383.032   3001988.323
99
